[{"name":"CUBEBUG-2 (LO-74)","line1":"1 39440U 13066AA  26177.57496437  .00004199  00000+0  38862-3 0  9996","line2":"2 39440  97.8903 126.5929 0057471 358.0477   2.0509 14.93834576678399"},{"name":"FUNCUBE-1 (AO-73)","line1":"1 39444U 13066AE  26177.46935771  .00007590  00000+0  46910-3 0  9998","line2":"2 39444  97.8271 149.1091 0036587 169.4285 190.7721 15.09592366681063"},{"name":"UWE-3","line1":"1 39446U 13066AG  26176.83787144  .00004431  00000+0  38106-3 0  9998","line2":"2 39446  97.8708 132.9703 0046807 291.8607  67.7640 14.97092153678877"},{"name":"UNISAT-6","line1":"1 40012U 14033C   26177.41151157  .00002559  00000+0  27764-3 0  9995","line2":"2 40012  97.7883 329.9615 0045733  39.6182 320.8362 14.88288091647535"},{"name":"DUCHIFAT-1","line1":"1 40021U 14033M   26177.60974735  .00111371  00000+0  10572-2 0  9992","line2":"2 40021  98.0448 238.1065 0001317 100.0937 260.0470 15.66536146657223"},{"name":"QB50P1","line1":"1 40025U 14033R   26177.24478524  .00009878  00000+0  48340-3 0  9994","line2":"2 40025  98.0964 189.0261 0008742 183.1826 176.9352 15.18390211654409"},{"name":"LILACSAT-2","line1":"1 40908U 15049K   26177.75265995  .00017374  00000+0  29262-3 0  9996","line2":"2 40908  97.4638 214.9588 0006419 202.9560 157.1406 15.51748827597239"},{"name":"FOX-1A (AO-85)","line1":"1 40967U 15058D   26177.60875044  .00002109  00000+0  19593-3 0  9993","line2":"2 40967  64.7749 249.7037 0131014  52.9293 308.3713 14.91006682114971"},{"name":"CAS-2T & KS-1Q","line1":"1 41847U 16066G   26177.45215971  .00001620  00000+0  23336-3 0  9998","line2":"2 41847  98.3822 253.0826 0342902 101.4662 262.5241 14.44722998506131"},{"name":"RADFXSAT (FOX-1B)","line1":"1 43017U 17073E   26176.60840684  .00008156  00000+0  35687-3 0  9992","line2":"2 43017  97.4699  43.6511 0148629 299.9037  58.7499 15.12826697466667"},{"name":"DIWATA-2B","line1":"1 43678U 18084H   26177.70610935  .00002698  00000+0  21902-3 0  9994","line2":"2 43678  98.1205  14.3297 0013043 140.2716 219.9465 15.00493099417641"},{"name":"ES'HAIL 2","line1":"1 43700U 18090A   26177.74205801  .00000156  00000+0  00000+0 0  9992","line2":"2 43700   0.0090 302.7911 0002132 185.1403  79.8583  1.00270519 27776"},{"name":"FOX-1CLIFF (AO-95)","line1":"1 43770U 18099N   26177.71185888  .00011312  00000+0  43041-3 0  9999","line2":"2 43770  97.4386 237.9235 0007136 319.9595  40.1117 15.26902666414678"},{"name":"ITASAT","line1":"1 43786U 18099AE  26177.70458022  .00006883  00000+0  33000-3 0  9999","line2":"2 43786  97.4027 229.0263 0011181 324.7706  35.2789 15.19167716414359"},{"name":"JY1SAT (JO-97)","line1":"1 43803U 18099AX  26177.62086153  .00016693  00000+0  51012-3 0  9995","line2":"2 43803  97.4134 240.4887 0005065 220.3437 139.7430 15.33939843415070"},{"name":"UWE-4","line1":"1 43880U 18111E   26177.72731250  .00032472  00000+0  64980-3 0  9992","line2":"2 43880  97.5846 106.5606 0004426 294.0658  66.0127 15.46698886412255"},{"name":"TIANYAN 01","line1":"1 44881U 19093C   26177.53578757  .00000552  00000+0  68244-4 0  9996","line2":"2 44881  97.7532 249.5400 0014899  59.0762 301.1916 14.86531583352807"},{"name":"RS-44 & BREEZE-KM R/B","line1":"1 44909U 19096E   26177.69966103  .00000017  00000+0  17228-4 0  9995","line2":"2 44909  82.5225 333.3830 0218469 122.0146 240.2387 12.79749029303564"},{"name":"SALSAT","line1":"1 46495U 20068K   26177.49875037  .00007768  00000+0  27079-3 0  9995","line2":"2 46495  97.8850 181.1309 0007809 268.2261  91.8084 15.29924136316788"},{"name":"XW-3 (CAS-9)","line1":"1 50466U 21131B   26177.63443392  .00000605  00000+0  20039-3 0  9993","line2":"2 50466  98.4982 269.9730 0005365  74.5279 285.6502 14.41366113236472"},{"name":"GREENCUBE (IO-117)","line1":"1 53109U 22080E   26176.74430124 -.00000003  00000+0  00000+0 0  9999","line2":"2 53109  70.1444 295.2691 0008975 287.7502  72.2178  6.42583224 92615"},{"name":"UMKA 1 (RS40S)","line1":"1 57172U 23091G   26177.56826546  .00006642  00000+0  30257-3 0  9999","line2":"2 57172  97.5053 236.2294 0014300  88.7504 271.5370 15.20921220165439"},{"name":"CUBESX-HSE 3 (RS42S)","line1":"1 57178U 23091N   26177.58356085  .00013397  00000+0  44267-3 0  9994","line2":"2 57178  97.5094 243.2899 0011547  65.3701 294.8742 15.31441165165864"},{"name":"MONITOR-3 (RS58S)","line1":"1 57180U 23091Q   26177.56341348  .00010502  00000+0  38593-3 0  9991","line2":"2 57180  97.5086 241.0785 0012764  71.8012 288.4616 15.28022165165722"},{"name":"MONITOR-4 (RS57S)","line1":"1 57182U 23091S   26177.60743147  .00010459  00000+0  38339-3 0  9990","line2":"2 57182  97.5080 241.0947 0012734  71.8590 288.4035 15.28107703165734"},{"name":"MONITOR-2 (RS39S)","line1":"1 57184U 23091U   26177.60134305  .00004908  00000+0  23742-3 0  9996","line2":"2 57184  97.5073 235.8233 0012712  82.6971 277.5708 15.18992701165382"},{"name":"SVYATOBOR 1 (RS60S)","line1":"1 57187U 23091X   26177.56315006  .00008777  00000+0  33580-3 0  9992","line2":"2 57187  97.5092 241.4322 0010526  66.2529 293.9813 15.26766844165741"},{"name":"VIZARD-METEO (RS38S)","line1":"1 57189U 23091Z   26177.59286106  .00016045  00000+0  45472-3 0  9995","line2":"2 57189  97.5095 247.2673 0007521  48.8055 311.3836 15.36312684166134"},{"name":"POLYTECH-UNIVERSE 3 (R*)","line1":"1 57191U 23091AB  26177.56142205  .00005538  00000+0  26546-3 0  9992","line2":"2 57191  97.5049 235.2879 0017079  97.1970 263.1206 15.19198452165379"},{"name":"UTMN 2 (RS27S)","line1":"1 57203U 23091AP  26177.59603384  .00013407  00000+0  43209-3 0  9998","line2":"2 57203  97.5090 244.9481 0008647  55.2376 304.9678 15.32270931165983"}]